NORAD_CAT_ID,OBJECT_NAME,OBJECT_TYPE,EPOCH,MEAN_MOTION,ECCENTRICITY,INCLINATION,RA_OF_ASC_NODE,ARG_OF_PERICENTER,MEAN_ANOMALY,BSTAR,MEAN_MOTION_DOT,MEAN_MOTION_DDOT,TLE_LINE0,TLE_LINE1,TLE_LINE2,SEMIMAJOR_AXIS,PERIOD,APOGEE,PERIGEE,DECAYED
54761.0,STARLINK-5202,PAYLOAD,2023-09-17 02:25:43,15.0884905,0.0001035,53.2162,145.2063,98.6863,261.4247,8.0209e-05,9.89e-06,0.0,0 STARLINK-5202,1 54761U 22175D   23260.10119266  .00000989  00000-0  80209-4 0  9998,2 54761  53.2162 145.2063 0001035  98.6863 261.4247 15.08849050 43355,6917.853,95.437,540.434,539.002,0.0
54761.0,STARLINK-5202,PAYLOAD,2023-09-18 02:16:29,15.0885257,0.0001046,53.2164,140.7457,94.0671,266.0441,0.00016953,2.412e-05,0.0,0 STARLINK-5202,1 54761U 22175D   23261.09478852  .00002412  00000-0  16953-3 0  9993,2 54761  53.2164 140.7457 0001046  94.0671 266.0441 15.08852570 41348,6917.842,95.437,540.431,538.983,0.0
54761.0,STARLINK-5202,PAYLOAD,2023-09-18 21:21:08,15.08837761,0.0001097,53.2159,137.1764,90.8145,269.2973,2.1294e-05,5.1e-07,0.0,0 STARLINK-5202,1 54761U 22175D   23261.88967669  .00000051  00000-0  21294-4 0  9991,2 54761  53.2159 137.1764 0001097  90.8145 269.2973 15.08837761 43622,6917.887,95.438,540.511,538.993,0.0
54761.0,STARLINK-5202,PAYLOAD,2023-09-19 00:31:54,15.08844605,9.91e-05,53.216,136.5824,85.0187,275.0919,0.00011633,1.564e-05,0.0,0 STARLINK-5202,1 54761U 22175D   23262.02215342  .00001564  00000-0  11633-3 0  9997,2 54761  53.2160 136.5824 0000991  85.0187 275.0919 15.08844605 41480,6917.866,95.437,540.417,539.046,0.0
54761.0,STARLINK-5202,PAYLOAD,2023-09-20 01:58:03,15.0886665,0.0001125,53.2159,131.8255,86.5735,273.5386,0.00068184,0.00010588,0.0,0 STARLINK-5202,1 54761U 22175D   23263.08198346  .00010588  00000-0  68184-3 0  9997,2 54761  53.2159 131.8255 0001125  86.5735 273.5386 15.08866650 41642,6917.799,95.436,540.442,538.886,0.0
54761.0,STARLINK-5202,PAYLOAD,2023-09-20 21:02:42,15.08821124,0.0001236,53.2151,128.2512,94.8729,265.2404,-0.0001939,-3.371e-05,0.0,0 STARLINK-5202,1 54761U 22175D   23263.87688095 -.00003371  00000-0 -19390-3 0  9998,2 54761  53.2151 128.2512 0001236  94.8729 265.2404 15.08821124 43927,6917.938,95.439,540.658,538.948,0.0
54761.0,STARLINK-5202,PAYLOAD,2023-09-20 22:38:05,15.08820656,0.0001246,53.2155,127.9592,98.088,262.0253,-0.00023336,-3.998e-05,0.0,0 STARLINK-5202,1 54761U 22175D   23263.94312265 -.00003998  00000-0 -23336-3 0  9999,2 54761  53.2155 127.9592 0001246  98.0880 262.0253 15.08820656 41777,6917.94,95.439,540.666,538.943,0.0
54761.0,STARLINK-5202,PAYLOAD,2023-09-21 20:53:30,15.08835143,0.0001333,53.2157,123.7893,98.9105,261.2038,0.00058802,9.082e-05,0.0,0 STARLINK-5202,1 54761U 22175D   23264.87049064  .00009082  00000-0  58802-3 0  9990,2 54761  53.2157 123.7893 0001333  98.9105 261.2038 15.08835143 44078,6917.895,95.438,540.682,538.838,0.0
54761.0,STARLINK-5202,PAYLOAD,2023-09-22 00:04:16,15.08843318,0.0001278,53.2155,123.1997,97.5528,262.5609,0.00081365,0.00012686,0.0,0 STARLINK-5202,1 54761U 22175D   23265.00297061  .00012686  00000-0  81365-3 0  9992,2 54761  53.2155 123.1997 0001278  97.5528 262.5609 15.08843318 41930,6917.87,95.437,540.619,538.851,0.0
54761.0,STARLINK-5202,PAYLOAD,2023-09-22 20:44:17,15.08857944,0.0001374,53.2157,119.3336,88.6696,271.4453,0.00070538,0.00010961,0.0,0 STARLINK-5202,1 54761U 22175D   23265.86408653  .00010961  00000-0  70538-3 0  9991,2 54761  53.2157 119.3336 0001374  88.6696 271.4453 15.08857944 44221,6917.826,95.436,540.641,538.74,0.0
54761.0,STARLINK-5202,PAYLOAD,2023-09-22 23:55:03,15.08862906,0.000137,53.2159,118.7383,89.1895,270.9254,0.00081684,0.00012744,0.0,0 STARLINK-5202,1 54761U 22175D   23265.99656447  .00012744  00000-0  81684-3 0  9996,2 54761  53.2159 118.7383 0001370  89.1895 270.9254 15.08862906 42080,6917.81,95.436,540.623,538.728,0.0
54761.0,STARLINK-5202,PAYLOAD,2023-09-23 18:59:40,15.08851811,0.000131,53.216,115.1713,95.6716,264.4425,0.00025217,3.729e-05,0.0,0 STARLINK-5202,1 54761U 22175D   23266.79144239  .00003729  00000-0  25217-3 0  9999,2 54761  53.2160 115.1713 0001310  95.6716 264.4425 15.08851811 42203,6917.844,95.437,540.616,538.803,0.0
54761.0,STARLINK-5202,PAYLOAD,2023-09-23 23:45:49,15.0885322,0.0001291,53.2162,114.2791,91.6331,268.4809,0.00030136,4.513e-05,0.0,0 STARLINK-5202,1 54761U 22175D   23266.99016107  .00004513  00000-0  30136-3 0  9991,2 54761  53.2162 114.2791 0001291  91.6331 268.4809 15.08853220 44396,6917.84,95.437,540.598,538.812,0.0
54761.0,STARLINK-5202,PAYLOAD,2023-09-24 18:50:27,15.08842854,0.0001322,53.2164,110.7102,94.8713,265.243,5.9632e-06,-1.93e-06,0.0,0 STARLINK-5202,1 54761U 22175D   23267.78504330 -.00000193  00000-0  59632-5 0  9994,2 54761  53.2164 110.7102 0001322  94.8713 265.2430 15.08842854 42359,6917.872,95.437,540.651,538.822,0.0
54761.0,STARLINK-5202,PAYLOAD,2023-09-24 23:36:37,15.08843396,0.0001308,53.2164,109.8175,96.2133,263.9009,6.2827e-05,7.12e-06,0.0,0 STARLINK-5202,1 54761U 22175D   23267.98376281  .00000712  00000-0  62827-4 0  9993,2 54761  53.2164 109.8175 0001308  96.2133 263.9009 15.08843396 44546,6917.87,95.437,540.64,538.83,0.0
54761.0,STARLINK-5202,PAYLOAD,2023-09-25 18:41:14,15.08847152,0.0001321,53.2162,106.2488,98.1319,261.9823,0.00013315,1.832e-05,0.0,0 STARLINK-5202,1 54761U 22175D   23268.77864003  .00001832  00000-0  13315-3 0  9996,2 54761  53.2162 106.2488 0001321  98.1319 261.9823 15.08847152 44663,6917.859,95.437,540.637,538.81,0.0
54761.0,STARLINK-5202,PAYLOAD,2023-09-26 13:45:52,15.08836295,0.0001554,53.2166,102.6812,80.9068,279.21,2.0402e-06,-2.56e-06,0.0,0 STARLINK-5202,1 54761U 22175D   23269.57352640 -.00000256  00000-0  20402-5 0  9991,2 54761  53.2166 102.6812 0001554  80.9068 279.2100 15.08836295 44785,6917.892,95.438,540.832,538.682,0.0
54761.0,STARLINK-5202,PAYLOAD,2023-09-26 16:56:39,15.08831921,0.0001443,53.2157,102.0849,105.7942,254.321,-3.8835e-05,-9.06e-06,0.0,0 STARLINK-5202,1 54761U 22175D   23269.70600933 -.00000906  00000-0 -38835-4 0  9998,2 54761  53.2157 102.0849 0001443 105.7942 254.3210 15.08831921 42643,6917.905,95.438,540.768,538.772,0.0
54761.0,STARLINK-5202,PAYLOAD,2023-09-26 20:07:25,15.08831296,0.0001403,53.2162,101.4901,106.1211,253.9935,-5.1811e-05,-1.112e-05,0.0,0 STARLINK-5202,1 54761U 22175D   23269.83849004 -.00001112  00000-0 -51811-4 0  9995,2 54761  53.2162 101.4901 0001403 106.1211 253.9935 15.08831296 44827,6917.907,95.438,540.743,538.801,0.0
54761.0,STARLINK-5202,PAYLOAD,2023-09-27 05:39:44,15.0883378,0.0001365,53.2162,99.707,91.975,268.1398,-1.3455e-05,-5.02e-06,0.0,0 STARLINK-5202,1 54761U 22175D   23270.23593103 -.00000502  00000-0 -13455-4 0  9991,2 54761  53.2162  99.7070 0001365  91.9750 268.1398 15.08833780 44886,6917.899,95.438,540.709,538.82,0.0
54761.0,STARLINK-5202,PAYLOAD,2023-09-27 19:58:13,15.08818528,0.0001574,53.2162,97.0306,95.0294,265.0877,0.00077423,0.00012048,0.0,0 STARLINK-5202,1 54761U 22175D   23270.83210110  .00012048  00000-0  77423-3 0  9991,2 54761  53.2162  97.0306 0001574  95.0294 265.0877 15.08818528 42811,6917.946,95.439,540.9,538.722,0.0
54761.0,STARLINK-5202,PAYLOAD,2023-09-27 23:09:00,15.08806428,0.0001767,53.2162,96.4356,92.0317,268.0877,0.0012577,0.00019767,0.0,0 STARLINK-5202,1 54761U 22175D   23270.96458988  .00019767  00000-0  12577-2 0  9995,2 54761  53.2162  96.4356 0001767  92.0317 268.0877 15.08806428 42837,6917.983,95.44,541.07,538.626,0.0
54761.0,STARLINK-5202,PAYLOAD,2023-09-28 11:52:04,15.08837302,0.0001437,53.216,94.057,89.2033,270.9124,0.00018455,2.65e-05,0.0,0 STARLINK-5202,1 54761U 22175D   23271.49449315  .00002650  00000-0  18455-3 0  9993,2 54761  53.2160  94.0570 0001437  89.2033 270.9124 15.08837302 42915,6917.889,95.438,540.748,538.76,0.0
54761.0,STARLINK-5202,PAYLOAD,2023-09-28 19:48:59,15.0884251,0.0001418,53.2159,92.5706,88.4531,271.6624,0.00023147,3.398e-05,0.0,0 STARLINK-5202,1 54761U 22175D   23271.82569141  .00003398  00000-0  23147-3 0  9994,2 54761  53.2159  92.5706 0001418  88.4531 271.6624 15.08842510 45126,6917.873,95.437,540.719,538.757,0.0
54761.0,STARLINK-5202,PAYLOAD,2023-09-29 11:42:50,15.08844865,0.0001379,53.2159,89.597,88.9705,271.1445,0.00018034,2.584e-05,0.0,0 STARLINK-5202,1 54761U 22175D   23272.48808996  .00002584  00000-0  18034-3 0  9996,2 54761  53.2159  89.5970 0001379  88.9705 271.1445 15.08844865 45221,6917.866,95.437,540.684,538.777,0.0
54761.0,STARLINK-5202,PAYLOAD,2023-09-29 18:04:23,15.08850561,0.0001426,53.2158,88.4087,81.388,278.7274,0.00015973,2.256e-05,0.0,0 STARLINK-5202,1 54761U 22175D   23272.75304619  .00002256  00000-0  15973-3 0  9994,2 54761  53.2158  88.4087 0001426  81.3880 278.7274 15.08850561 43109,6917.848,95.437,540.7,538.727,0.0
54761.0,STARLINK-5202,PAYLOAD,2023-09-30 17:55:10,15.08841581,0.0001348,53.2156,83.9478,91.7887,268.3259,4.5513e-05,4.37e-06,0.0,0 STARLINK-5202,1 54761U 22175D   23273.74664835  .00000437  00000-0  45513-4 0  9996,2 54761  53.2156  83.9478 0001348  91.7887 268.3259 15.08841581 43252,6917.876,95.437,540.673,538.808,0.0
54761.0,STARLINK-5202,PAYLOAD,2023-10-01 11:24:24,15.08846958,0.0001462,53.2169,80.6746,98.5,261.6158,-5.0808e-06,-3.69e-06,0.0,0 STARLINK-5202,1 54761U 22175D   23274.47528703 -.00000369  00000-0 -50808-5 0  9990,2 54761  53.2169  80.6746 0001462  98.5000 261.6158 15.08846958 45526,6917.859,95.437,540.736,538.713,0.0
54761.0,STARLINK-5202,PAYLOAD,2023-10-01 17:45:56,15.08848084,0.0001439,53.2172,79.4878,92.8527,267.263,8.8371e-05,1.119e-05,0.0,0 STARLINK-5202,1 54761U 22175D   23274.74024265  .00001119  00000-0  88371-4 0  9991,2 54761  53.2172  79.4878 0001439  92.8527 267.2630 15.08848084 45560,6917.856,95.437,540.716,538.725,0.0
54761.0,STARLINK-5202,PAYLOAD,2023-10-02 11:15:12,15.08837425,0.000134,53.2159,76.2152,87.9445,272.1701,6.3536e-05,7.23e-06,0.0,0 STARLINK-5202,1 54761U 22175D   23275.46889081  .00000723  00000-0  63536-4 0  9992,2 54761  53.2159  76.2152 0001340  87.9445 272.1701 15.08837425 43514,6917.888,95.438,540.68,538.826,0.0
